{"type":"FeatureCollection","features":[{"type":"Feature","id":"place-shangjing-liao","geometry":{"type":"Point","coordinates":[119.38,43.98]},"properties":{"id":"place-shangjing-liao","name":"上京临潢府","kind":"capital","rank":1,"style":"ink-capital","source":"curated sketch","license":"CC-BY-4.0","confidence":"high","note":"辽上京，916-1120 为辽朝政治中心，后陷于金","periods":["liao-1111"]}},{"type":"Feature","id":"place-zhongjing-liao","geometry":{"type":"Point","coordinates":[118.95,41.53]},"properties":{"id":"place-zhongjing-liao","name":"中京大定府","kind":"capital","rank":1,"style":"ink-capital","source":"curated sketch","license":"CC-BY-4.0","confidence":"medium","note":"辽中京，辽朝五京之一，位于今内蒙古宁城","periods":["liao-1111"]}},{"type":"Feature","id":"place-gaolianghe","geometry":{"type":"Point","coordinates":[116.35,39.95]},"properties":{"id":"place-gaolianghe","name":"高粱河","kind":"battlefield","rank":2,"style":"ink-battlefield","source":"curated sketch","license":"CC-BY-4.0","confidence":"medium","note":"979 宋太宗伐辽败绩处（今北京西直门外一带）","periods":["song-1111","liao-1111"]}},{"type":"Feature","id":"place-chanzhou","geometry":{"type":"Point","coordinates":[115.03,35.76]},"properties":{"id":"place-chanzhou","name":"澶州","kind":"battlefield","rank":2,"style":"ink-battlefield","source":"curated sketch","license":"CC-BY-4.0","confidence":"high","note":"1004-1005 澶渊之盟订立地（今河南濮阳）","periods":["song-1111","liao-1111"]}},{"type":"Feature","id":"place-songyang-academy","geometry":{"type":"Point","coordinates":[113.03,34.48]},"properties":{"id":"place-songyang-academy","name":"嵩阳书院","kind":"academy","rank":2,"style":"ink-academy","source":"curated sketch","license":"CC-BY-4.0","confidence":"medium","note":"北宋四大书院之一（今河南登封嵩山南麓）","periods":["song-1111"]}},{"type":"Feature","id":"place-xingqing","geometry":{"type":"Point","coordinates":[106.27,38.47]},"properties":{"id":"place-xingqing","name":"兴庆府","kind":"capital","rank":1,"style":"ink-capital","source":"curated sketch","license":"CC-BY-4.0","confidence":"high","note":"西夏都城（今宁夏银川）","periods":["song-1111","liao-1111"]}},{"type":"Feature","id":"place-bailudong-academy","geometry":{"type":"Point","coordinates":[116,29.55]},"properties":{"id":"place-bailudong-academy","name":"白鹿洞书院","kind":"academy","rank":2,"style":"ink-academy","source":"curated sketch","license":"CC-BY-4.0","confidence":"medium","note":"南宋四大书院之一（今江西九江庐山五老峰南麓）","periods":["song-1142"]}},{"type":"Feature","id":"place-huangtiandang","geometry":{"type":"Point","coordinates":[118.95,32.15]},"properties":{"id":"place-huangtiandang","name":"黄天荡","kind":"battlefield","rank":2,"style":"ink-battlefield","source":"curated sketch","license":"CC-BY-4.0","confidence":"medium","note":"1130 韩世忠阻击金兀术处（今南京东北）","periods":["song-1142","jin-1142"]}},{"type":"Feature","id":"place-caishiji","geometry":{"type":"Point","coordinates":[118.43,31.66]},"properties":{"id":"place-caishiji","name":"采石矶","kind":"battlefield","rank":2,"style":"ink-battlefield","source":"curated sketch","license":"CC-BY-4.0","confidence":"high","note":"1161 采石之战宋军大破金军处（今安徽马鞍山）","periods":["song-1142","jin-1200"]}},{"type":"Feature","id":"place-ningjiangzhou","geometry":{"type":"Point","coordinates":[126.05,44.99]},"properties":{"id":"place-ningjiangzhou","name":"宁江州","kind":"battlefield","rank":2,"style":"ink-battlefield","source":"curated sketch","license":"CC-BY-4.0","confidence":"medium","note":"1114 女真抗辽首战地（今吉林扶余一带）","periods":["jin-1120","liao-1111"]}},{"type":"Feature","id":"place-hubudagan","geometry":{"type":"Point","coordinates":[126.8,45.3]},"properties":{"id":"place-hubudagan","name":"护步答冈","kind":"battlefield","rank":2,"style":"ink-battlefield","source":"curated sketch","license":"CC-BY-4.0","confidence":"low","note":"1115 金太祖击溃天祚帝亲征大军处（今黑龙江五常一带）","periods":["jin-1120","liao-1111"]}},{"type":"Feature","id":"place-sanfengshan","geometry":{"type":"Point","coordinates":[113.4,34.28]},"properties":{"id":"place-sanfengshan","name":"三峰山","kind":"battlefield","rank":2,"style":"ink-battlefield","source":"curated sketch","license":"CC-BY-4.0","confidence":"medium","note":"1232 蒙古军歼灭金军主力处（今河南禹州西北）","periods":["jin-1200"]}},{"type":"Feature","id":"place-caizhou","geometry":{"type":"Point","coordinates":[114.35,33]},"properties":{"id":"place-caizhou","name":"蔡州","kind":"battlefield","rank":2,"style":"ink-battlefield","source":"curated sketch","license":"CC-BY-4.0","confidence":"high","note":"1234 宋蒙联军破城、金朝灭亡处（今河南汝南）","periods":["jin-1200"]}},{"type":"Feature","id":"place-xiangyang","geometry":{"type":"Point","coordinates":[112.13,32]},"properties":{"id":"place-xiangyang","name":"襄阳","kind":"battlefield","rank":2,"style":"ink-battlefield","source":"curated sketch","license":"CC-BY-4.0","confidence":"high","note":"1273 元军围城六年陷落，南宋门户洞开","periods":["song-1279","yuan-1279"]}},{"type":"Feature","id":"place-dingjiazhou","geometry":{"type":"Point","coordinates":[117.81,30.93]},"properties":{"id":"place-dingjiazhou","name":"丁家洲","kind":"battlefield","rank":2,"style":"ink-battlefield","source":"curated sketch","license":"CC-BY-4.0","confidence":"medium","note":"1275 元军大破南宋水军处（今安徽铜陵一带）","periods":["song-1279","yuan-1279"]}},{"type":"Feature","id":"place-yashan","geometry":{"type":"Point","coordinates":[113.05,22.25]},"properties":{"id":"place-yashan","name":"崖山","kind":"battlefield","rank":1,"style":"ink-battlefield","source":"curated sketch","license":"CC-BY-4.0","confidence":"high","note":"1279 崖山海战南宋覆灭处（今广东新会崖门）","periods":["song-1279","yuan-1279"]}},{"type":"Feature","id":"place-dadu","geometry":{"type":"Point","coordinates":[116.4,39.9]},"properties":{"id":"place-dadu","name":"大都","kind":"capital","rank":1,"style":"ink-capital","source":"curated sketch","license":"CC-BY-4.0","confidence":"high","note":"元朝都城（今北京），1272 年起营建","periods":["yuan-1279","yuan-1300"]}},{"type":"Feature","id":"place-shangdu-yuan","geometry":{"type":"Point","coordinates":[116.1,42.3]},"properties":{"id":"place-shangdu-yuan","name":"上都开平","kind":"capital","rank":1,"style":"ink-capital","source":"curated sketch","license":"CC-BY-4.0","confidence":"medium","note":"元上都，夏都（今内蒙古正蓝旗）","periods":["yuan-1279","yuan-1300"]}},{"type":"Feature","id":"place-poyang","geometry":{"type":"Point","coordinates":[116.3,29.15]},"properties":{"id":"place-poyang","name":"鄱阳湖","kind":"battlefield","rank":2,"style":"ink-battlefield","source":"curated sketch","license":"CC-BY-4.0","confidence":"medium","note":"1363 朱元璋与陈友谅水军决战处","periods":["yuan-1300"]}}]}